[{"OBJECT_NAME":"STARLINK-35419","OBJECT_ID":"2025-268C","EPOCH":"2026-03-09T08:00:01.000224","MEAN_MOTION":15.27566548,"ECCENTRICITY":0.00017109,"INCLINATION":43.0012,"RA_OF_ASC_NODE":349.159,"ARG_OF_PERICENTER":267.5724,"MEAN_ANOMALY":115.5605,"EPHEMERIS_TYPE":0,"CLASSIFICATION_TYPE":"U","NORAD_CAT_ID":66559,"ELEMENT_SET_NO":999,"REV_AT_EPOCH":582,"BSTAR":0.0011440373,"MEAN_MOTION_DOT":0.00031341,"MEAN_MOTION_DDOT":0},{"OBJECT_NAME":"CZ-4B R\/B","OBJECT_ID":"2010-051C","EPOCH":"2026-03-09T16:48:37.977120","MEAN_MOTION":15.17426017,"ECCENTRICITY":0.00758037,"INCLINATION":97.7974,"RA_OF_ASC_NODE":110.8647,"ARG_OF_PERICENTER":95.044,"MEAN_ANOMALY":265.9451,"EPHEMERIS_TYPE":0,"CLASSIFICATION_TYPE":"U","NORAD_CAT_ID":37181,"ELEMENT_SET_NO":999,"REV_AT_EPOCH":84355,"BSTAR":0.00029718512,"MEAN_MOTION_DOT":6.328e-5,"MEAN_MOTION_DDOT":0}]
